IRIDIUM 135             
1 43070U 17083A   26164.52360141  .00000007  00000+0 -43902-5 0  9994
2 43070  86.3959 323.5475 0002060  91.5132 268.6300 14.34217554443624
IRIDIUM 138             
1 43071U 17083B   26164.47920241  .00000114  00000+0  33771-4 0  9992
2 43071  86.3975 323.2609 0002360  87.0279 273.1187 14.34218697443605
IRIDIUM 116             
1 43072U 17083C   26164.51725840  .00000064  00000+0  15896-4 0  9998
2 43072  86.3960 323.5360 0001918  96.9907 263.1507 14.34217953443645
IRIDIUM 130             
1 43073U 17083D   26164.48554546 -.00000051  00000+0 -25386-4 0  9991
2 43073  86.3966 323.8243 0001821  90.0985 270.0420 14.34217084443588
IRIDIUM 151             
1 43074U 17083E   26164.52994419  .00000019  00000+0 -22295-6 0  9995
2 43074  86.3962 323.5885 0002139  92.6956 267.4485 14.34217616443619
IRIDIUM 134             
1 43075U 17083F   26164.49823078  .00000034  00000+0  51660-5 0  9997
2 43075  86.3963 323.6096 0002086  90.0982 270.0453 14.34217894443576
IRIDIUM 137             
1 43076U 17083G   26164.51091609  .00000059  00000+0  14166-4 0  9994
2 43076  86.3965 323.6970 0002154 103.6666 256.4770 14.34217914443647
IRIDIUM 141             
1 43077U 17083H   26164.50457368  .00000015  00000+0 -15578-5 0  9994
2 43077  86.3957 323.5307 0002090  90.7787 269.3648 14.34217598443646
IRIDIUM 153             
1 43078U 17083J   26164.59628979  .00000019  00000+0 -11197-6 0  9990
2 43078  86.3955 291.9726 0002164  89.9744 270.1699 14.34217605444762
IRIDIUM 131             
1 43079U 17083K   26164.49188839  .00000075  00000+0  19671-4 0  9990
2 43079  86.3967 323.7217 0002207  91.6696 268.4753 14.34218061443575
IRIDIUM 144             
1 43249U 18030A   26164.60263141  .00000052  00000+0  11649-4 0  9997
2 43249  86.3956 291.8989 0002084  96.0028 264.1405 14.34217990429621
IRIDIUM 149             
1 43250U 18030B   26164.60897466  .00000008  00000+0 -40871-5 0  9994
2 43250  86.3953 291.8631 0002247  93.1074 267.0379 14.34217694429649
IRIDIUM 157             
1 43251U 18030C   26164.41869681  .00000019  00000+0 -32207-6 0  9999
2 43251  86.3956 291.9960 0002194  94.0372 266.1075 14.34217780429594
IRIDIUM 140             
1 43252U 18030D   26164.64703015  .00000012  00000+0 -27861-5 0  9995
2 43252  86.3954 291.9132 0002009  93.0998 267.0428 14.34217538429685
IRIDIUM 145             
1 43253U 18030E   26164.63434436  .00000079  00000+0  21070-4 0  9990
2 43253  86.3955 291.8906 0001942  99.7689 260.3726 14.34217642429616
IRIDIUM 146             
1 43254U 18030F   26164.61531733  .00000002  00000+0 -64086-5 0  9999
2 43254  86.3954 291.9110 0001980  96.3453 263.7968 14.34217465429627
IRIDIUM 148             
1 43255U 18030G   26164.58360482  .00000021  00000+0  32644-6 0  9993
2 43255  86.3957 291.9672 0002223  96.6733 263.4716 14.34217527429659
IRIDIUM 142             
1 43256U 18030H   26164.62165918  .00000227  00000+0  73886-4 0  9995
2 43256  86.3953 291.8403 0002052  97.4744 262.6685 14.34218051429624
IRIDIUM 150             
1 43257U 18030J   26164.58994696  .00000000  00000+0 -68948-5 0  9998
2 43257  86.3955 291.9700 0002008  93.1822 266.9604 14.34217455429646
IRIDIUM 143             
1 43258U 18030K   26164.64068611  .00000202  00000+0  64899-4 0  9998
2 43258  86.3960 292.0410 0002083  95.5367 264.6067 14.34218955429583
IRIDIUM 161             
1 43478U 18047C   26164.28646998  .00000294  00000+0  81336-4 0  9996
2 43478  86.4483  90.1020 0002544  86.0544 274.0948 14.43281008424572
IRIDIUM 152             
1 43479U 18047D   26164.54363788  .00000018  00000+0 -69103-6 0  9994
2 43479  86.3958  89.8555 0002239  83.0897 277.0554 14.34217520421960
IRIDIUM 147             
1 43480U 18047E   26164.54997999  .00000014  00000+0 -19945-5 0  9997
2 43480  86.3960  89.8581 0002144  85.2632 274.8809 14.34217535421964
IRIDIUM 110             
1 43481U 18047F   26164.34701656  .00000085  00000+0  23190-4 0  9992
2 43481  86.3962  90.0347 0002581  84.0118 276.1372 14.34218405421925
IRIDIUM 162             
1 43482U 18047G   26164.28017677  .00000289  00000+0  80029-4 0  9999
2 43482  86.4481  89.9957 0002302  82.7861 277.3602 14.43279651424560
IRIDIUM 160             
1 43569U 18061A   26164.64169592  .00000029  00000+0  32780-5 0  9999
2 43569  86.3964  58.2799 0002276  85.8777 274.2679 14.34217586412863
IRIDIUM 166             
1 43570U 18061B   26164.45776017  .00000072  00000+0  18523-4 0  9992
2 43570  86.3966  58.3074 0002120  85.6406 274.5032 14.34217876412867
IRIDIUM 158             
1 43571U 18061C   26164.63535314  .00000031  00000+0  39306-5 0  9994
2 43571  86.3963  58.2430 0002219  81.8852 278.2596 14.34217488412856
IRIDIUM 165             
1 43572U 18061D   26164.45141592  .00000126  00000+0  38073-4 0  9990
2 43572  86.3966  58.3663 0002069  85.8769 274.2664 14.34217272412856
IRIDIUM 155             
1 43573U 18061E   26164.62266750  .00000000  00000+0 -69039-5 0  9993
2 43573  86.3957  58.1637 0002023  81.9352 278.2074 14.34217471412840
