OBJECT_NAME,OBJECT_ID,EPOCH,MEAN_MOTION,ECCENTRICITY,INCLINATION,RA_OF_ASC_NODE,ARG_OF_PERICENTER,MEAN_ANOMALY,EPHEMERIS_TYPE,CLASSIFICATION_TYPE,NORAD_CAT_ID,ELEMENT_SET_NO,REV_AT_EPOCH,BSTAR,MEAN_MOTION_DOT,MEAN_MOTION_DDOT
IRIDIUM 135,2017-083A,2026-06-13T12:33:59.161824,14.34217554,.00020604,86.3959,323.5475,91.5132,268.6300,0,U,43070,999,44362,-.4390197E-5,.7E-7,0
IRIDIUM 138,2017-083B,2026-06-13T11:30:03.088224,14.34218697,.00023601,86.3975,323.2609,87.0279,273.1187,0,U,43071,999,44360,.33770808E-4,.114E-5,0
IRIDIUM 116,2017-083C,2026-06-13T12:24:51.125760,14.34217953,.00019187,86.3960,323.5360,96.9907,263.1507,0,U,43072,999,44364,.15896151E-4,.64E-6,0
IRIDIUM 130,2017-083D,2026-06-13T11:39:11.127744,14.34217084,.00018217,86.3966,323.8243,90.0985,270.0420,0,U,43073,999,44358,-.25385649E-4,-.51E-6,0
IRIDIUM 151,2017-083E,2026-06-13T12:43:07.178016,14.34217616,.00021394,86.3962,323.5885,92.6956,267.4485,0,U,43074,999,44361,-.222948E-6,.19E-6,0
IRIDIUM 134,2017-083F,2026-06-13T11:57:27.139392,14.34217894,.00020866,86.3963,323.6096,90.0982,270.0453,0,U,43075,999,44357,.5165998E-5,.34E-6,0
IRIDIUM 137,2017-083G,2026-06-13T12:15:43.150176,14.34217914,.00021543,86.3965,323.6970,103.6666,256.4770,0,U,43076,999,44364,.14165522E-4,.59E-6,0
IRIDIUM 141,2017-083H,2026-06-13T12:06:35.165952,14.34217598,.00020901,86.3957,323.5307,90.7787,269.3648,0,U,43077,999,44364,-.155779E-5,.15E-6,0
IRIDIUM 153,2017-083J,2026-06-13T14:18:39.437856,14.34217605,.00021647,86.3955,291.9726,89.9744,270.1699,0,U,43078,999,44476,-.111969E-6,.19E-6,0
IRIDIUM 131,2017-083K,2026-06-13T11:48:19.156896,14.34218061,.00022078,86.3967,323.7217,91.6696,268.4753,0,U,43079,999,44357,.19671029E-4,.75E-6,0
IRIDIUM 144,2018-030A,2026-06-13T14:27:47.353824,14.34217990,.00020844,86.3956,291.8989,96.0028,264.1405,0,U,43249,999,42962,.116493E-4,.52E-6,0
IRIDIUM 149,2018-030B,2026-06-13T14:36:55.410624,14.34217694,.00022477,86.3953,291.8631,93.1074,267.0379,0,U,43250,999,42964,-.4087073E-5,.8E-7,0
IRIDIUM 157,2018-030C,2026-06-13T10:02:55.404384,14.34217780,.00021943,86.3956,291.9960,94.0372,266.1075,0,U,43251,999,42959,-.322071E-6,.19E-6,0
IRIDIUM 140,2018-030D,2026-06-13T15:31:43.404960,14.34217538,.00020096,86.3954,291.9132,93.0998,267.0428,0,U,43252,999,42968,-.278606E-5,.12E-6,0
IRIDIUM 145,2018-030E,2026-06-13T15:13:27.352704,14.34217642,.00019423,86.3955,291.8906,99.7689,260.3726,0,U,43253,999,42961,.21070022E-4,.79E-6,0
IRIDIUM 146,2018-030F,2026-06-13T14:46:03.417312,14.34217465,.00019801,86.3954,291.9110,96.3453,263.7968,0,U,43254,999,42962,-.6408609E-5,.2E-7,0
IRIDIUM 148,2018-030G,2026-06-13T14:00:23.456448,14.34217527,.00022237,86.3957,291.9672,96.6733,263.4716,0,U,43255,999,42965,.326436E-6,.21E-6,0
IRIDIUM 142,2018-030H,2026-06-13T14:55:11.353152,14.34218051,.00020527,86.3953,291.8403,97.4744,262.6685,0,U,43256,999,42962,.73885929E-4,.227E-5,0
IRIDIUM 150,2018-030J,2026-06-13T14:09:31.417344,14.34217455,.00020088,86.3955,291.9700,93.1822,266.9604,0,U,43257,999,42964,-.6894824E-5,0,0
IRIDIUM 143,2018-030K,2026-06-13T15:22:35.279904,14.34218955,.00020838,86.3960,292.0410,95.5367,264.6067,0,U,43258,999,42958,.6489928E-4,.202E-5,0
IRIDIUM 161,2018-047C,2026-06-13T06:52:31.006272,14.43281008,.00025448,86.4483,90.1020,86.0544,274.0948,0,U,43478,999,42457,.81336356E-4,.294E-5,0
IRIDIUM 152,2018-047D,2026-06-13T13:02:50.312832,14.34217520,.00022394,86.3958,89.8555,83.0897,277.0554,0,U,43479,999,42196,-.691033E-6,.18E-6,0
IRIDIUM 147,2018-047E,2026-06-13T13:11:58.271136,14.34217535,.00021447,86.3960,89.8581,85.2632,274.8809,0,U,43480,999,42196,-.199451E-5,.14E-6,0
IRIDIUM 110,2018-047F,2026-06-13T08:19:42.230784,14.34218405,.00025811,86.3962,90.0347,84.0118,276.1372,0,U,43481,999,42192,.2319041E-4,.85E-6,0
IRIDIUM 162,2018-047G,2026-06-13T06:43:27.272928,14.43279651,.00023028,86.4481,89.9957,82.7861,277.3602,0,U,43482,999,42456,.8002895E-4,.289E-5,0
IRIDIUM 160,2018-061A,2026-06-13T15:24:02.527488,14.34217586,.00022762,86.3964,58.2799,85.8777,274.2679,0,U,43569,999,41286,.3278007E-5,.29E-6,0
IRIDIUM 166,2018-061B,2026-06-13T10:59:10.478688,14.34217876,.00021203,86.3966,58.3074,85.6406,274.5032,0,U,43570,999,41286,.18523204E-4,.72E-6,0
IRIDIUM 158,2018-061C,2026-06-13T15:14:54.511296,14.34217488,.00022194,86.3963,58.2430,81.8852,278.2596,0,U,43571,999,41285,.3930571E-5,.31E-6,0
IRIDIUM 165,2018-061D,2026-06-13T10:50:02.335488,14.34217272,.0002069,86.3966,58.3663,85.8769,274.2664,0,U,43572,999,41285,.38073435E-4,.126E-5,0
IRIDIUM 155,2018-061E,2026-06-13T14:56:38.472000,14.34217471,.00020237,86.3957,58.1637,81.9352,278.2074,0,U,43573,999,41284,-.6903896E-5,0,0
